[{"OBJECT_NAME":"LAPAN-A3","OBJECT_ID":"2016-040E","EPOCH":"2026-03-09T23:01:57.724896","MEAN_MOTION":15.3238951,"ECCENTRICITY":0.00109839,"INCLINATION":97.1488,"RA_OF_ASC_NODE":68.4254,"ARG_OF_PERICENTER":22.062,"MEAN_ANOMALY":338.1093,"EPHEMERIS_TYPE":0,"CLASSIFICATION_TYPE":"U","NORAD_CAT_ID":41603,"ELEMENT_SET_NO":999,"REV_AT_EPOCH":53961,"BSTAR":0.00017567445,"MEAN_MOTION_DOT":5.428e-5,"MEAN_MOTION_DDOT":0},{"OBJECT_NAME":"STARLINK-35594","OBJECT_ID":"2025-240M","EPOCH":"2026-03-09T08:52:35.921280","MEAN_MOTION":15.30198855,"ECCENTRICITY":0.0001623,"INCLINATION":53.1614,"RA_OF_ASC_NODE":64.0013,"ARG_OF_PERICENTER":75.4773,"MEAN_ANOMALY":284.6408,"EPHEMERIS_TYPE":0,"CLASSIFICATION_TYPE":"U","NORAD_CAT_ID":66157,"ELEMENT_SET_NO":999,"REV_AT_EPOCH":2194,"BSTAR":0.0014099038,"MEAN_MOTION_DOT":0.00041631,"MEAN_MOTION_DDOT":0}]
